NORAD_CAT_ID,OBJECT_NAME,OBJECT_TYPE,EPOCH,MEAN_MOTION,ECCENTRICITY,INCLINATION,RA_OF_ASC_NODE,ARG_OF_PERICENTER,MEAN_ANOMALY,BSTAR,MEAN_MOTION_DOT,MEAN_MOTION_DDOT,TLE_LINE0,TLE_LINE1,TLE_LINE2,SEMIMAJOR_AXIS,PERIOD,APOGEE,PERIGEE,DECAYED
51719.0,STARLINK-3540,PAYLOAD,2022-09-14 06:00:00,15.08855917,0.0001968,53.2148,281.3358,56.5482,247.2153,-0.0012157,-0.00019593,0.0,0 STARLINK-3540,1 51719U 22016F   22257.25001157 -.00019593  00000-0 -12157-2 0  9990,2 51719  53.2148 281.3358 0001968  56.5482 247.2153 15.08855917 32392,6917.831999999999,95.437,541.058,538.335,0.0
51719.0,STARLINK-3540,PAYLOAD,2022-09-14 14:00:01,15.08853481,0.0001996999999999,53.2144,279.84,51.0361,264.3269,-0.001126,-0.00018171,0.0,0 STARLINK-3540,1 51719U 22016F   22257.58334491 -.00018171  00000-0 -11260-2 0  9991,2 51719  53.2144 279.8400 0001997  51.0361 264.3269 15.08853481  1305,6917.839,95.437,541.086,538.323,0.0
51719.0,STARLINK-3540,PAYLOAD,2022-09-14 22:00:00,15.08802982,0.0001835,53.2147,278.3417,56.0627,270.918,0.0033505,0.00053385,0.0,0 STARLINK-3540,1 51719U 22016F   22257.91667824  .00053385  00000-0  33505-2 0  9997,2 51719  53.2147 278.3417 0001835  56.0627 270.9180 15.08802982  1306,6917.994000000002,95.44,541.128,538.589,0.0
51719.0,STARLINK-3540,PAYLOAD,2022-09-15 06:00:00,15.08847484,0.0001981,53.2149,276.8463,54.5753,283.975,-0.0012238,-0.00019717,0.0,0 STARLINK-3540,1 51719U 22016F   22258.25001157 -.00019717  00000-0 -12238-2 0  9999,2 51719  53.2149 276.8463 0001981  54.5753 283.9750 15.08847484 32540,6917.858,95.437,541.0930000000002,538.352,0.0
51719.0,STARLINK-3540,PAYLOAD,2022-09-15 14:00:01,15.08845503,0.0002011,53.2148,275.3504,49.7925,300.3511,0.00021274,3.1e-05,0.0,0 STARLINK-3540,1 51719U 22016F   22258.58334491  .00003100  00000-0  21274-3 0  9993,2 51719  53.2148 275.3504 0002011  49.7925 300.3511 15.08845503  1300,6917.864000000001,95.437,541.12,538.337,0.0
51719.0,STARLINK-3540,PAYLOAD,2022-09-15 18:48:48,15.08844841,0.0001992,53.2156,274.4481,58.6634,301.4553,0.00024718,3.648e-05,0.0,0 STARLINK-3540,1 51719U 22016F   22258.78389895  .00003648  00000-0  24718-3 0  9996,2 51719  53.2156 274.4481 0001992  58.6634 301.4553 15.08844841 31569,6917.866,95.437,541.109,538.3530000000002,0.0
51719.0,STARLINK-3540,PAYLOAD,2022-09-15 23:34:58,15.08849878,0.0002008999999999,53.2152,273.5569,56.8654,303.253,0.00031585,4.744e-05,0.0,0 STARLINK-3540,1 51719U 22016F   22258.98261686  .00004744  00000-0  31585-3 0  9993,2 51719  53.2152 273.5569 0002009  56.8654 303.2530 15.08849878 32655,6917.85,95.437,541.105,538.325,0.0
51719.0,STARLINK-3540,PAYLOAD,2022-09-16 04:21:07,15.0883982,0.0002036,53.2158,272.6632,54.507,305.6112,8.646299999999999e-05,1.088e-05,0.0,0 STARLINK-3540,1 51719U 22016F   22259.18134083  .00001088  00000-0  86463-4 0  9990,2 51719  53.2158 272.6632 0002036  54.5070 305.6112 15.08839820 32680,6917.880999999999,95.438,541.154,538.337,0.0
51719.0,STARLINK-3540,PAYLOAD,2022-09-16 07:31:54,15.08838253,0.0001885,53.2157,272.0689,58.7017,301.4159,5.8547e-05,6.44e-06,0.0,0 STARLINK-3540,1 51719U 22016F   22259.31382177  .00000644  00000-0  58547-4 0  9993,2 51719  53.2157 272.0689 0001885  58.7017 301.4159 15.08838253 31642,6917.886,95.438,541.055,538.447,0.0
51719.0,STARLINK-3540,PAYLOAD,2022-09-17 07:22:41,15.08845951,0.0001935,53.2156,267.6093,57.2655,302.8524,0.00030641,4.593e-05,0.0,0 STARLINK-3540,1 51719U 22016F   22260.30742085  .00004593  00000-0  30641-3 0  9993,2 51719  53.2156 267.6093 0001935  57.2655 302.8524 15.08845951 32856,6917.861999999999,95.437,541.066,538.389,0.0
51719.0,STARLINK-3540,PAYLOAD,2022-09-17 20:05:46,15.08832839,0.0001906999999999,53.2155,265.2302,59.9445,300.1736,3.8473e-05,3.24e-06,0.0,0 STARLINK-3540,1 51719U 22016F   22260.83734600  .00000324  00000-0  38473-4 0  9995,2 51719  53.2155 265.2302 0001907  59.9445 300.1736 15.08832839 32933,6917.901999999999,95.438,541.087,538.448,0.0
51719.0,STARLINK-3540,PAYLOAD,2022-09-18 07:13:28,15.08834972,0.0001931,53.2153,263.1487,57.0196,303.0982,0.00010055,1.312e-05,0.0,0 STARLINK-3540,1 51719U 22016F   22261.30102794  .00001312  00000-0  10055-3 0  9994,2 51719  53.2153 263.1487 0001931  57.0196 303.0982 15.08834972 31946,6917.896,95.438,541.097,538.425,0.0
51719.0,STARLINK-3540,PAYLOAD,2022-09-18 19:56:33,15.08842527,0.0001914,53.2154,260.7701,56.1577,303.9597,0.00017239,2.457e-05,0.0,0 STARLINK-3540,1 51719U 22016F   22261.83094607  .00002457  00000-0  17239-3 0  9997,2 51719  53.2154 260.7701 0001914  56.1577 303.9597 15.08842527 32029,6917.873000000001,95.437,541.062,538.414,0.0
51719.0,STARLINK-3540,PAYLOAD,2022-09-19 02:18:06,15.08846612,0.0001971,53.2153,259.5808,55.2164,304.9013,0.00026798,3.98e-05,0.0,0 STARLINK-3540,1 51719U 22016F   22262.09590521  .00003980  00000-0  26798-3 0  9994,2 51719  53.2153 259.5808 0001971  55.2164 304.9013 15.08846612 33122,6917.86,95.437,541.089,538.362,0.0
51719.0,STARLINK-3540,PAYLOAD,2022-09-19 05:28:52,15.08840286,0.0001899,53.2164,258.9861,55.9477,304.1695,0.00014819,2.071e-05,0.0,0 STARLINK-3540,1 51719U 22016F   22262.22838709  .00002071  00000-0  14819-3 0  9993,2 51719  53.2164 258.9861 0001899  55.9477 304.1695 15.08840286 32082,6917.88,95.438,541.058,538.431,0.0
51719.0,STARLINK-3540,PAYLOAD,2022-09-19 18:11:57,15.08838779,0.0001889,53.2152,256.6073,57.3779,302.7395,0.00014927,2.088e-05,0.0,0 STARLINK-3540,1 51719U 22016F   22262.75831006  .00002088  00000-0  14927-3 0  9992,2 51719  53.2152 256.6073 0001889  57.3779 302.7395 15.08838779 33221,6917.884,95.438,541.056,538.442,0.0
51719.0,STARLINK-3540,PAYLOAD,2022-09-19 19:47:21,15.08839069,0.0001883,53.2152,256.3099,57.2134,302.9039,0.00016488,2.337e-05,0.0,0 STARLINK-3540,1 51719U 22016F   22262.82455031  .00002337  00000-0  16488-3 0  9991,2 51719  53.2152 256.3099 0001883  57.2134 302.9039 15.08839069 32177,6917.8830000000025,95.438,541.0509999999998,538.446,0.0
51719.0,STARLINK-3540,PAYLOAD,2022-09-20 08:30:26,15.08845259,0.0001876999999999,53.2149,253.931,58.6414,301.4762,0.00030631,4.591e-05,0.0,0 STARLINK-3540,1 51719U 22016F   22263.35446844  .00004591  00000-0  30631-3 0  9992,2 51719  53.2149 253.9310 0001877  58.6414 301.4762 15.08845259 32255,6917.864000000001,95.437,541.028,538.431,0.0
51719.0,STARLINK-3540,PAYLOAD,2022-09-20 16:27:21,15.08848831,0.0001863,53.2151,252.4451,60.493,299.6248,0.00039414,5.992e-05,0.0,0 STARLINK-3540,1 51719U 22016F   22263.68566683  .00005992  00000-0  39414-3 0  9996,2 51719  53.2151 252.4451 0001863  60.4930 299.6248 15.08848831 32309,6917.853,95.437,541.007,538.43,0.0
51719.0,STARLINK-3540,PAYLOAD,2022-09-21 05:10:26,15.08838441,0.0001841,53.2151,250.0652,57.5087,302.6083,3.5398e-05,2.75e-06,0.0,0 STARLINK-3540,1 51719U 22016F   22264.21558930  .00000275  00000-0  35398-4 0  9999,2 51719  53.2151 250.0652 0001841  57.5087 302.6083 15.08838441 33446,6917.885,95.438,541.024,538.477,0.0
51719.0,STARLINK-3540,PAYLOAD,2022-09-21 08:21:13,15.08838493,0.0001891,53.215,249.4703,55.4484,304.6686,2.8086e-05,1.59e-06,0.0,0 STARLINK-3540,1 51719U 22016F   22264.34806939  .00000159  00000-0  28086-4 0  9995,2 51719  53.2150 249.4703 0001891  55.4484 304.6686 15.08838493 32400,6917.885,95.438,541.058,538.442,0.0
51719.0,STARLINK-3540,PAYLOAD,2022-09-21 22:39:41,15.08846369,0.0001863,53.2153,246.7936,55.2536,304.8632,0.00016878,2.4e-05,0.0,0 STARLINK-3540,1 51719U 22016F   22264.94422682  .00002400  00000-0  16878-3 0  9996,2 51719  53.2153 246.7936 0001863  55.2536 304.8632 15.08846369 32499,6917.861,95.437,541.015,538.437,0.0
51719.0,STARLINK-3540,PAYLOAD,2022-09-23 04:52:00,15.08842084,0.0001797,53.2153,241.1435,54.8435,305.2726,0.00011583,1.556e-05,0.0,0 STARLINK-3540,1 51719U 22016F   22266.20278934  .00001556  00000-0  11583-3 0  9995,2 51719  53.2153 241.1435 0001797  54.8435 305.2726 15.08842084 32681,6917.874,95.437,540.982,538.496,0.0
51719.0,STARLINK-3540,PAYLOAD,2022-09-23 19:10:29,15.08836952,0.0001843,53.2153,238.4665,56.7905,303.3264,1.8029e-05,-1e-08,0.0,0 STARLINK-3540,1 51719U 22016F   22266.79895511 -.00000001  00000-0  18029-4 0  9993,2 51719  53.2153 238.4665 0001843  56.7905 303.3264 15.08836952 33831,6917.89,95.438,541.03,538.48,0.0
51719.0,STARLINK-3540,PAYLOAD,2022-09-23 20:45:53,15.08832829,0.0001929,53.2161,238.1709,50.6729,309.4434,3.9421e-05,3.39e-06,0.0,0 STARLINK-3540,1 51719U 22016F   22266.86519731  .00000339  00000-0  39421-4 0  9990,2 51719  53.2161 238.1709 0001929  50.6729 309.4434 15.08832829 32786,6917.901999999999,95.438,541.102,538.433,0.0
51719.0,STARLINK-3540,PAYLOAD,2022-09-24 07:53:34,15.08839666,0.0001892,53.2164,236.0893,51.5831,308.5331,8.4829e-05,1.062e-05,0.0,0 STARLINK-3540,1 51719U 22016F   22267.32887311  .00001062  00000-0  84829-4 0  9990,2 51719  53.2164 236.0893 0001892  51.5831 308.5331 15.08839666 32853,6917.880999999999,95.438,541.055,538.438,0.0
51719.0,STARLINK-3540,PAYLOAD,2022-09-25 02:58:11,15.08844587,0.0001735,53.2164,232.5202,56.7563,303.3595,0.00011035,1.469e-05,0.0,0 STARLINK-3540,1 51719U 22016F   22268.12374938  .00001469  00000-0  11035-3 0  9994,2 51719  53.2164 232.5202 0001735  56.7563 303.3595 15.08844587 34038,6917.866,95.437,540.932,538.531,0.0
51719.0,STARLINK-3540,PAYLOAD,2022-09-25 14:05:53,15.08843864,0.000181,53.2165,230.4387,55.8583,304.258,8.3516e-05,1.041e-05,0.0,0 STARLINK-3540,1 51719U 22016F   22268.58743050  .00001041  00000-0  83516-4 0  9999,2 51719  53.2165 230.4387 0001810  55.8583 304.2580 15.08843864 33047,6917.869000000002,95.437,540.986,538.481,0.0
51719.0,STARLINK-3540,PAYLOAD,2022-09-26 04:24:22,15.08834719,0.0001774,53.2166,227.7625,55.3487,304.7672,8.2125e-05,1.019e-05,0.0,0 STARLINK-3540,1 51719U 22016F   22269.18359804  .00001019  00000-0  82125-4 0  9996,2 51719  53.2166 227.7625 0001774  55.3487 304.7672 15.08834719 33135,6917.897,95.438,540.989,538.534,0.0
